{"fetched_at":"2026-07-14T06:34:18.387Z","source":"https://celestrak.org/NORAD/elements/gp.php?GROUP=iridium-NEXT&FORMAT=JSON","constellation":"iridium","records":[{"OBJECT_NAME":"IRIDIUM 106","OBJECT_ID":"2017-003A","EPOCH":"2026-07-13T17:55:46.205184","CLASSIFICATION_TYPE":"U","MEAN_MOTION":14.34217017,"ECCENTRICITY":0.0002148,"INCLINATION":86.3941,"RA_OF_ASC_NODE":77.4508,"ARG_OF_PERICENTER":93.9554,"MEAN_ANOMALY":266.1888,"EPHEMERIS_TYPE":0,"NORAD_CAT_ID":41917,"ELEMENT_SET_NO":999,"REV_AT_EPOCH":49701,"BSTAR":6.6794e-8,"MEAN_MOTION_DOT":2e-7,"MEAN_MOTION_DDOT":0},{"OBJECT_NAME":"IRIDIUM 103","OBJECT_ID":"2017-003B","EPOCH":"2026-07-13T17:37:30.217728","CLASSIFICATION_TYPE":"U","MEAN_MOTION":14.34218057,"ECCENTRICITY":0.0001974,"INCLINATION":86.3939,"RA_OF_ASC_NODE":77.3558,"ARG_OF_PERICENTER":83.0925,"MEAN_ANOMALY":277.0495,"EPHEMERIS_TYPE":0,"NORAD_CAT_ID":41918,"ELEMENT_SET_NO":999,"REV_AT_EPOCH":49703,"BSTAR":0.00002852,"MEAN_MOTION_DOT":0.000001,"MEAN_MOTION_DDOT":0},{"OBJECT_NAME":"IRIDIUM 109","OBJECT_ID":"2017-003C","EPOCH":"2026-07-13T17:46:38.169120","CLASSIFICATION_TYPE":"U","MEAN_MOTION":14.34216835,"ECCENTRICITY":0.0002047,"INCLINATION":86.3943,"RA_OF_ASC_NODE":77.413,"ARG_OF_PERICENTER":83.8936,"MEAN_ANOMALY":276.2493,"EPHEMERIS_TYPE":0,"NORAD_CAT_ID":41919,"ELEMENT_SET_NO":999,"REV_AT_EPOCH":49700,"BSTAR":-0.000018814,"MEAN_MOTION_DOT":-3.3e-7,"MEAN_MOTION_DDOT":0},{"OBJECT_NAME":"IRIDIUM 102","OBJECT_ID":"2017-003D","EPOCH":"2026-07-13T18:41:26.336256","CLASSIFICATION_TYPE":"U","MEAN_MOTION":14.34218169,"ECCENTRICITY":0.0002259,"INCLINATION":86.3943,"RA_OF_ASC_NODE":77.3202,"ARG_OF_PERICENTER":84.45,"MEAN_ANOMALY":275.6954,"EPHEMERIS_TYPE":0,"NORAD_CAT_ID":41920,"ELEMENT_SET_NO":999,"REV_AT_EPOCH":49709,"BSTAR":0.000045306,"MEAN_MOTION_DOT":0.00000147,"MEAN_MOTION_DDOT":0},{"OBJECT_NAME":"IRIDIUM 105","OBJECT_ID":"2017-003E","EPOCH":"2026-07-13T12:40:24.887712","CLASSIFICATION_TYPE":"U","MEAN_MOTION":14.34217624,"ECCENTRICITY":0.0002165,"INCLINATION":86.3941,"RA_OF_ASC_NODE":45.8529,"ARG_OF_PERICENTER":79.6737,"MEAN_ANOMALY":280.4703,"EPHEMERIS_TYPE":0,"NORAD_CAT_ID":41921,"ELEMENT_SET_NO":999,"REV_AT_EPOCH":49891,"BSTAR":0.000047511756,"MEAN_MOTION_DOT":0.00000153,"MEAN_MOTION_DDOT":0},{"OBJECT_NAME":"IRIDIUM 104","OBJECT_ID":"2017-003F","EPOCH":"2026-07-13T17:19:14.212128","CLASSIFICATION_TYPE":"U","MEAN_MOTION":14.34217945,"ECCENTRICITY":0.0002023,"INCLINATION":86.3944,"RA_OF_ASC_NODE":77.3871,"ARG_OF_PERICENTER":78.6206,"MEAN_ANOMALY":281.5217,"EPHEMERIS_TYPE":0,"NORAD_CAT_ID":41922,"ELEMENT_SET_NO":999,"REV_AT_EPOCH":49707,"BSTAR":0.000043106,"MEAN_MOTION_DOT":0.0000014,"MEAN_MOTION_DDOT":0},{"OBJECT_NAME":"IRIDIUM 114","OBJECT_ID":"2017-003G","EPOCH":"2026-07-13T17:28:22.249056","CLASSIFICATION_TYPE":"U","MEAN_MOTION":14.34217018,"ECCENTRICITY":0.0001929,"INCLINATION":86.3941,"RA_OF_ASC_NODE":77.3668,"ARG_OF_PERICENTER":81.2651,"MEAN_ANOMALY":278.8763,"EPHEMERIS_TYPE":0,"NORAD_CAT_ID":41923,"ELEMENT_SET_NO":999,"REV_AT_EPOCH":49705,"BSTAR":-0.000015934,"MEAN_MOTION_DOT":-2.5e-7,"MEAN_MOTION_DDOT":0},{"OBJECT_NAME":"IRIDIUM 108","OBJECT_ID":"2017-003H","EPOCH":"2026-07-13T16:28:38.477280","CLASSIFICATION_TYPE":"U","MEAN_MOTION":14.34217824,"ECCENTRICITY":0.0002228,"INCLINATION":86.3937,"RA_OF_ASC_NODE":45.6751,"ARG_OF_PERICENTER":85.1962,"MEAN_ANOMALY":274.9488,"EPHEMERIS_TYPE":0,"NORAD_CAT_ID":41924,"ELEMENT_SET_NO":999,"REV_AT_EPOCH":49890,"BSTAR":0.000039157,"MEAN_MOTION_DOT":0.00000129,"MEAN_MOTION_DDOT":0},{"OBJECT_NAME":"IRIDIUM 112","OBJECT_ID":"2017-003J","EPOCH":"2026-07-13T17:10:06.085344","CLASSIFICATION_TYPE":"U","MEAN_MOTION":14.34217011,"ECCENTRICITY":0.0002253,"INCLINATION":86.3943,"RA_OF_ASC_NODE":77.2142,"ARG_OF_PERICENTER":85.4729,"MEAN_ANOMALY":274.6724,"EPHEMERIS_TYPE":0,"NORAD_CAT_ID":41925,"ELEMENT_SET_NO":999,"REV_AT_EPOCH":49707,"BSTAR":0.000038474,"MEAN_MOTION_DOT":0.00000128,"MEAN_MOTION_DDOT":0},{"OBJECT_NAME":"IRIDIUM 111","OBJECT_ID":"2017-003K","EPOCH":"2026-07-13T18:32:18.275136","CLASSIFICATION_TYPE":"U","MEAN_MOTION":14.34217893,"ECCENTRICITY":0.0002138,"INCLINATION":86.3942,"RA_OF_ASC_NODE":77.261,"ARG_OF_PERICENTER":84.8055,"MEAN_ANOMALY":275.3384,"EPHEMERIS_TYPE":0,"NORAD_CAT_ID":41926,"ELEMENT_SET_NO":999,"REV_AT_EPOCH":49706,"BSTAR":0.000033461,"MEAN_MOTION_DOT":0.00000113,"MEAN_MOTION_DDOT":0},{"OBJECT_NAME":"IRIDIUM 113","OBJECT_ID":"2017-039A","EPOCH":"2026-07-13T19:43:55.118208","CLASSIFICATION_TYPE":"U","MEAN_MOTION":14.34217159,"ECCENTRICITY":0.0002014,"INCLINATION":86.3988,"RA_OF_ASC_NODE":311.0464,"ARG_OF_PERICENTER":90.6247,"MEAN_ANOMALY":269.518,"EPHEMERIS_TYPE":0,"NORAD_CAT_ID":42803,"ELEMENT_SET_NO":999,"REV_AT_EPOCH":47500,"BSTAR":-0.0000038789,"MEAN_MOTION_DOT":9e-8,"MEAN_MOTION_DDOT":0},{"OBJECT_NAME":"IRIDIUM 123","OBJECT_ID":"2017-039B","EPOCH":"2026-07-13T20:43:38.836416","CLASSIFICATION_TYPE":"U","MEAN_MOTION":14.34217115,"ECCENTRICITY":0.0002051,"INCLINATION":86.3986,"RA_OF_ASC_NODE":342.4853,"ARG_OF_PERICENTER":96.3078,"MEAN_ANOMALY":263.8352,"EPHEMERIS_TYPE":0,"NORAD_CAT_ID":42804,"ELEMENT_SET_NO":999,"REV_AT_EPOCH":47377,"BSTAR":-0.0000093854,"MEAN_MOTION_DOT":-7e-8,"MEAN_MOTION_DDOT":0},{"OBJECT_NAME":"IRIDIUM 120","OBJECT_ID":"2017-039C","EPOCH":"2026-07-13T17:54:19.273824","CLASSIFICATION_TYPE":"U","MEAN_MOTION":14.34217725,"ECCENTRICITY":0.0002217,"INCLINATION":86.3975,"RA_OF_ASC_NODE":310.8574,"ARG_OF_PERICENTER":99.1623,"MEAN_ANOMALY":260.9824,"EPHEMERIS_TYPE":0,"NORAD_CAT_ID":42805,"ELEMENT_SET_NO":999,"REV_AT_EPOCH":47498,"BSTAR":-0.000016805,"MEAN_MOTION_DOT":-2.7e-7,"MEAN_MOTION_DDOT":0},{"OBJECT_NAME":"IRIDIUM 115","OBJECT_ID":"2017-039D","EPOCH":"2026-07-13T19:27:46.614816","CLASSIFICATION_TYPE":"U","MEAN_MOTION":14.4327715,"ECCENTRICITY":0.0002224,"INCLINATION":86.4517,"RA_OF_ASC_NODE":310.9624,"ARG_OF_PERICENTER":99.6856,"MEAN_ANOMALY":260.4596,"EPHEMERIS_TYPE":0,"NORAD_CAT_ID":42806,"ELEMENT_SET_NO":999,"REV_AT_EPOCH":47810,"BSTAR":0.000045544,"MEAN_MOTION_DOT":0.00000173,"MEAN_MOTION_DDOT":0},{"OBJECT_NAME":"IRIDIUM 118","OBJECT_ID":"2017-039E","EPOCH":"2026-07-13T19:48:50.969088","CLASSIFICATION_TYPE":"U","MEAN_MOTION":14.34217409,"ECCENTRICITY":0.0002169,"INCLINATION":86.3988,"RA_OF_ASC_NODE":342.499,"ARG_OF_PERICENTER":90.594,"MEAN_ANOMALY":269.5505,"EPHEMERIS_TYPE":0,"NORAD_CAT_ID":42807,"ELEMENT_SET_NO":999,"REV_AT_EPOCH":47376,"BSTAR":-0.0000036755,"MEAN_MOTION_DOT":9e-8,"MEAN_MOTION_DDOT":0},{"OBJECT_NAME":"IRIDIUM 117","OBJECT_ID":"2017-039F","EPOCH":"2026-07-13T20:16:14.831040","CLASSIFICATION_TYPE":"U","MEAN_MOTION":14.34217324,"ECCENTRICITY":0.0002185,"INCLINATION":86.399,"RA_OF_ASC_NODE":342.4484,"ARG_OF_PERICENTER":94.5649,"MEAN_ANOMALY":265.5797,"EPHEMERIS_TYPE":0,"NORAD_CAT_ID":42808,"ELEMENT_SET_NO":999,"REV_AT_EPOCH":47379,"BSTAR":0.000022238,"MEAN_MOTION_DOT":8.2e-7,"MEAN_MOTION_DDOT":0}]}
