IRIDIUM 106             
1 41917U 17003A   26194.74706256  .00000020  00000+0  66794-7 0  9992
2 41917  86.3941  77.4508 0002148  93.9554 266.1888 14.34217017497016
IRIDIUM 103             
1 41918U 17003B   26194.73437752  .00000100  00000+0  28520-4 0  9995
2 41918  86.3939  77.3558 0001974  83.0925 277.0495 14.34218057497038
IRIDIUM 109             
1 41919U 17003C   26194.74071955 -.00000033  00000+0 -18814-4 0  9998
2 41919  86.3943  77.4130 0002047  83.8936 276.2493 14.34216835497001
IRIDIUM 102             
1 41920U 17003D   26194.77877704  .00000147  00000+0  45306-4 0  9999
2 41920  86.3943  77.3202 0002259  84.4500 275.6954 14.34218169497097
IRIDIUM 105             
1 41921U 17003E   26194.52806583  .00000153  00000+0  47512-4 0  9998
2 41921  86.3941  45.8529 0002165  79.6737 280.4703 14.34217624498915
IRIDIUM 104             
1 41922U 17003F   26194.72169227  .00000140  00000+0  43106-4 0  9999
2 41922  86.3944  77.3871 0002023  78.6206 281.5217 14.34217945497076
IRIDIUM 114             
1 41923U 17003G   26194.72803529 -.00000025  00000+0 -15934-4 0  9992
2 41923  86.3941  77.3668 0001929  81.2651 278.8763 14.34217018497050
IRIDIUM 108             
1 41924U 17003H   26194.68655645  .00000129  00000+0  39157-4 0  9998
2 41924  86.3937  45.6751 0002228  85.1962 274.9488 14.34217824498909
IRIDIUM 112             
1 41925U 17003J   26194.71534821  .00000128  00000+0  38474-4 0  9995
2 41925  86.3943  77.2142 0002253  85.4729 274.6724 14.34217011497079
IRIDIUM 111             
1 41926U 17003K   26194.77243374  .00000113  00000+0  33461-4 0  9997
2 41926  86.3942  77.2610 0002138  84.8055 275.3384 14.34217893497063
IRIDIUM 113             
1 42803U 17039A   26194.82216572  .00000009  00000+0 -38789-5 0  9991
2 42803  86.3988 311.0464 0002014  90.6247 269.5180 14.34217159475009
IRIDIUM 123             
1 42804U 17039B   26194.86364394 -.00000007  00000+0 -93854-5 0  9995
2 42804  86.3986 342.4853 0002051  96.3078 263.8352 14.34217115473776
IRIDIUM 120             
1 42805U 17039C   26194.74605641 -.00000027  00000+0 -16805-4 0  9998
2 42805  86.3975 310.8574 0002217  99.1623 260.9824 14.34217725474988
IRIDIUM 115             
1 42806U 17039D   26194.81095619  .00000173  00000+0  45544-4 0  9997
2 42806  86.4517 310.9624 0002224  99.6856 260.4596 14.43277150478107
IRIDIUM 118             
1 42807U 17039E   26194.82558992  .00000009  00000+0 -36755-5 0  9991
2 42807  86.3988 342.4990 0002169  90.5940 269.5505 14.34217409473765
IRIDIUM 117             
1 42808U 17039F   26194.84461610  .00000082  00000+0  22238-4 0  9994
2 42808  86.3990 342.4484 0002185  94.5649 265.5797 14.34217324473793
